ONEWEB-0387             
1 49313U 21090AL  26024.20147168  .00000153  00000+0  34507-3 0  9995
2 49313  87.9223 303.1944 0001990  81.1821 278.9538 13.20774006210811
ONEWEB-0388             
1 49314U 21090AM  26024.12848113  .00000011  00000+0 -41415-5 0  9997
2 49314  87.9238 333.6428 0001901  76.7184 283.4161 13.19727083207413
ONEWEB-0389             
1 50469U 21132A   26024.29968213 -.00000027  00000+0 -10241-3 0  9998
2 50469  87.9083  34.4638 0002203  88.5756 271.5628 13.17649300199133
ONEWEB-0390             
1 50470U 21132B   26023.76981673  .00000061  00000+0  12432-3 0  9996
2 50470  87.9084  34.5701 0001852  99.2745 260.8596 13.17649020199060
ONEWEB-0391             
1 50471U 21132C   26024.30304438  .00000099  00000+0  22256-3 0  9992
2 50471  87.9079  34.4731 0002676  96.1856 263.9580 13.17651437199131
ONEWEB-0392             
1 50472U 21132D   26024.25749918 -.00000033  00000+0 -11856-3 0  9997
2 50472  87.9093  34.4382 0002193  90.0302 270.1081 13.17649931199168
ONEWEB-0393             
1 50473U 21132E   26024.30657099  .00000058  00000+0  11581-3 0  9992
2 50473  87.9089  34.4515 0002018  90.4218 269.7144 13.17648468199166
ONEWEB-0394             
1 50474U 21132F   26023.70486866  .00000048  00000+0  89352-4 0  9999
2 50474  87.9199   4.1230 0001983  82.1722 277.9636 13.18685733202557
